$$SOE
2460154.500000000, A.D. 2023-Jul-29 00:00:00.0000, 6.122814730090314E+08, -4.454639601854602E+08, 4.670813573040931E+07,
2460161.500000000, A.D. 2023-Aug-05 00:00:00.0000, 6.171034596765560E+08, -4.389674115950121E+08, 4.592461025361846E+07,
2460168.500000000, A.D. 2023-Aug-12 00:00:00.0000, 6.218567911030058E+08, -4.324220383528683E+08, 4.513597437418872E+07,
2460175.500000000, A.D. 2023-Aug-19 00:00:00.0000, 6.265409568166167E+08, -4.258285848593475E+08, 4.434231743114680E+07,
2460182.500000000, A.D. 2023-Aug-26 00:00:00.0000, 6.311554553745289E+08, -4.191878013266412E+08, 4.354372929877025E+07,
2460189.500000000, A.D. 2023-Sep-02 00:00:00.0000, 6.356997944013913E+08, -4.125004436474808E+08, 4.274030037454578E+07,
2460196.500000000, A.D. 2023-Sep-09 00:00:00.0000, 6.401734906394403E+08, -4.057672733753335E+08, 4.193212155562426E+07,
2460203.500000000, A.D. 2023-Sep-16 00:00:00.0000, 6.445760701785469E+08, -3.989890578740562E+08, 4.111928418364009E+07,
2460210.500000000, A.D. 2023-Sep-23 00:00:00.0000, 6.489070692827879E+08, -3.921665703501756E+08, 4.030187994322486E+07,
2460217.500000000, A.D. 2023-Sep-30 00:00:00.0000, 6.531660354742718E+08, -3.853005885771488E+08, 3.948000084282200E+07,
2460224.500000000, A.D. 2023-Oct-07 00:00:00.0000, 6.573525265207765E+08, -3.783918928547604E+08, 3.865373944953781E+07,
2460231.500000000, A.D. 2023-Oct-14 00:00:00.0000, 6.614661083670231E+08, -3.714412665171457E+08, 3.782318901206012E+07,
2460238.500000000, A.D. 2023-Oct-21 00:00:00.0000, 6.655063552379293E+08, -3.644494973867065E+08, 3.698844330663271E+07,
2460245.500000000, A.D. 2023-Oct-28 00:00:00.0000, 6.694728504894567E+08, -3.574173779137480E+08, 3.614959652165738E+07,
2460252.500000000, A.D. 2023-Nov-04 00:00:00.0000, 6.733651869570606E+08, -3.503457047722850E+08, 3.530674323288859E+07,
2460259.500000000, A.D. 2023-Nov-11 00:00:00.0000, 6.771829669792941E+08, -3.432352785119649E+08, 3.445997840417920E+07,
2460266.500000000, A.D. 2023-Nov-18 00:00:00.0000, 6.809258023160278E+08, -3.360869033304510E+08, 3.360939738863957E+07,
2460273.500000000, A.D. 2023-Nov-25 00:00:00.0000, 6.845933140340785E+08, -3.289013869437356E+08, 3.275509592559989E+07,
2460280.500000000, A.D. 2023-Dec-02 00:00:00.0000, 6.881851323883871E+08, -3.216795405656140E+08, 3.189717013004966E+07,
2460287.500000000, A.D. 2023-Dec-09 00:00:00.0000, 6.917008967765013E+08, -3.144221790552626E+08, 3.103571646270797E+07,
2460294.500000000, A.D. 2023-Dec-16 00:00:00.0000, 6.951402560537869E+08, -3.071301212203242E+08, 3.017083165539616E+07,
2460301.500000000, A.D. 2023-Dec-23 00:00:00.0000, 6.985028695577762E+08, -2.998041895879527E+08, 2.930261261588389E+07,
2460308.500000000, A.D. 2023-Dec-30 00:00:00.0000, 7.017884075016019E+08, -2.924452085945188E+08, 2.843115652080281E+07,
2460315.500000000, A.D. 2024-Jan-06 00:00:00.0000, 7.049965489642694E+08, -2.850540035549098E+08, 2.755656106614600E+07,
2460322.500000000, A.D. 2024-Jan-13 00:00:00.0000, 7.081269806503422E+08, -2.776314022184744E+08, 2.667892443642919E+07,
2460329.500000000, A.D. 2024-Jan-20 00:00:00.0000, 7.111793976424072E+08, -2.701782358269118E+08, 2.579834513208459E+07,
2460336.500000000, A.D. 2024-Jan-27 00:00:00.0000, 7.141535041176481E+08, -2.626953390218396E+08, 2.491492189423141E+07,
2460343.500000000, A.D. 2024-Feb-03 00:00:00.0000, 7.170490136002606E+08, -2.551835495507000E+08, 2.402875368837520E+07,
2460350.500000000, A.D. 2024-Feb-10 00:00:00.0000, 7.198656490271409E+08, -2.476437080621756E+08, 2.313993969760405E+07,
2460357.500000000, A.D. 2024-Feb-17 00:00:00.0000, 7.226031427655934E+08, -2.400766579832386E+08, 2.224857931303844E+07,
2460364.500000000, A.D. 2024-Feb-24 00:00:00.0000, 7.252612366190579E+08, -2.324832454631001E+08, 2.135477211931149E+07,
2460371.500000000, A.D. 2024-Mar-02 00:00:00.0000, 7.278396818502444E+08, -2.248643194166532E+08, 2.045861786962858E+07,
2460378.500000000, A.D. 2024-Mar-09 00:00:00.0000, 7.303382393604794E+08, -2.172207317303548E+08, 1.956021643245533E+07,
2460385.500000000, A.D. 2024-Mar-16 00:00:00.0000, 7.327566804204762E+08, -2.095533374333187E+08, 1.865966768963220E+07,
2460392.500000000, A.D. 2024-Mar-23 00:00:00.0000, 7.350947878489351E+08, -2.018629937245144E+08, 1.775707148601419E+07,
2460399.500000000, A.D. 2024-Mar-30 00:00:00.0000, 7.373523553980209E+08, -1.941505578829217E+08, 1.685252783402783E+07,
2460406.500000000, A.D. 2024-Apr-06 00:00:00.0000, 7.395291856018233E+08, -1.864168874285414E+08, 1.594613707445230E+07,
2460413.500000000, A.D. 2024-Apr-13 00:00:00.0000, 7.416250896385618E+08, -1.786628416979300E+08, 1.503799973601738E+07,
2460420.500000000, A.D. 2024-Apr-20 00:00:00.0000, 7.436398882541040E+08, -1.708892821574330E+08, 1.412821639988098E+07,
2460427.500000000, A.D. 2024-Apr-27 00:00:00.0000, 7.455734122297752E+08, -1.630970720153420E+08, 1.321688766229723E+07,
2460434.500000000, A.D. 2024-May-04 00:00:00.0000, 7.474255024824563E+08, -1.552870758361917E+08, 1.230411413000654E+07,
2460441.500000000, A.D. 2024-May-11 00:00:00.0000, 7.491960100354726E+08, -1.474601592587718E+08, 1.138999641828558E+07,
2460448.500000000, A.D. 2024-May-18 00:00:00.0000, 7.508847959424409E+08, -1.396171887959855E+08, 1.047463514606393E+07,
2460455.500000000, A.D. 2024-May-25 00:00:00.0000, 7.524917311889790E+08, -1.317590317234522E+08, 9.558130925455809E+06,
2460462.500000000, A.D. 2024-Jun-01 00:00:00.0000, 7.540166966322328E+08, -1.238865561140992E+08, 8.640584335749738E+06,
2460469.500000000, A.D. 2024-Jun-08 00:00:00.0000, 7.554595832245630E+08, -1.160006310415341E+08, 7.722095857624292E+06,
2460476.500000000, A.D. 2024-Jun-15 00:00:00.0000, 7.568202929207665E+08, -1.081021264068752E+08, 6.802765775740936E+06,
2460483.500000000, A.D. 2024-Jun-22 00:00:00.0000, 7.580987392635857E+08, -1.001919112135494E+08, 5.882694238230232E+06,
2460490.500000000, A.D. 2024-Jun-29 00:00:00.0000, 7.592948455261453E+08, -9.227085211070190E+07, 4.961981519158717E+06,
2460497.500000000, A.D. 2024-Jul-06 00:00:00.0000, 7.604085430563790E+08, -8.433981467641705E+07, 4.040728039638478E+06,
2460504.500000000, A.D. 2024-Jul-13 00:00:00.0000, 7.614397717724229E+08, -7.639966461659895E+07, 3.119034199708730E+06,
2460511.500000000, A.D. 2024-Jul-20 00:00:00.0000, 7.623884808232312E+08, -6.845126773065898E+07, 2.197000297085650E+06,
2460518.500000000, A.D. 2024-Jul-27 00:00:00.0000, 7.632546287584835E+08, -6.049548960339421E+07, 1.274726514560271E+06,
2460525.500000000, A.D. 2024-Aug-03 00:00:00.0000, 7.640381834807879E+08, -5.253319539793050E+07, 3.523129203078076E+05,
2460532.500000000, A.D. 2024-Aug-10 00:00:00.0000, 7.647391221459901E+08, -4.456524975402410E+07, -5.701405345995594E+05,
2460539.500000000, A.D. 2024-Aug-17 00:00:00.0000, 7.653574310589566E+08, -3.659251676973866E+07, -1.492534024233088E+06,
2460546.500000000, A.D. 2024-Aug-24 00:00:00.0000, 7.658931055927101E+08, -2.861586008844213E+07, -2.414767866009330E+06,
2460553.500000000, A.D. 2024-Aug-31 00:00:00.0000, 7.663461502465473E+08, -2.063614315231239E+07, -3.336742564940490E+06,
2460560.500000000, A.D. 2024-Sep-07 00:00:00.0000, 7.667165792085525E+08, -1.265422949571303E+07, -4.258358907401216E+06,
2460567.500000000, A.D. 2024-Sep-14 00:00:00.0000, 7.670044175075662E+08, -4.670982082231105E+06, -5.179518031094273E+06,
2460574.500000000, A.D. 2024-Sep-21 00:00:00.0000, 7.672097007258198E+08, 3.312738727607723E+06, -6.100121251604155E+06,
2460581.500000000, A.D. 2024-Sep-28 00:00:00.0000, 7.673324727850606E+08, 1.129607535044108E+07, -7.020069864752500E+06,
2460588.500000000, A.D. 2024-Oct-05 00:00:00.0000, 7.673727854758583E+08, 1.927817129760931E+07, -7.939265261368341E+06,
2460595.500000000, A.D. 2024-Oct-12 00:00:00.0000, 7.673306993692608E+08, 2.725817061639519E+07, -8.857609077962898E+06,
2460602.500000000, A.D. 2024-Oct-19 00:00:00.0000, 7.672062843598891E+08, 3.523521818441349E+07, -9.775003244883444E+06,
2460609.500000000, A.D. 2024-Oct-26 00:00:00.0000, 7.669996198082896E+08, 4.320846005599345E+07, -1.069134999447838E+07,
2460616.500000000, A.D. 2024-Nov-02 00:00:00.0000, 7.667107945401216E+08, 5.117704371240239E+07, -1.160655186499168E+07,
2460623.500000000, A.D. 2024-Nov-09 00:00:00.0000, 7.663399067990464E+08, 5.914011823684931E+07, -1.252051170732624E+07,
2460630.500000000, A.D. 2024-Nov-16 00:00:00.0000, 7.658870641794857E+08, 6.709683441474955E+07, -1.343313269698380E+07,
2460637.500000000, A.D. 2024-Nov-23 00:00:00.0000, 7.653523835863882E+08, 7.504634470951906E+07, -1.434431835950462E+07,
2460644.500000000, A.D. 2024-Nov-30 00:00:00.0000, 7.647359914304048E+08, 8.298780307134913E+07, -1.525397263192582E+07,
2460651.500000000, A.D. 2024-Dec-07 00:00:00.0000, 7.640380244778028E+08, 9.092036499966265E+07, -1.616199996426726E+07,
2460658.500000000, A.D. 2024-Dec-14 00:00:00.0000, 7.632586306662582E+08, 9.884318908347069E+07, -1.706830529773003E+07,
2460665.500000000, A.D. 2024-Dec-21 00:00:00.0000, 7.623979675680813E+08, 1.067554387792406E+08, -1.797279380816628E+07,
2460672.500000000, A.D. 2024-Dec-28 00:00:00.0000, 7.614562004736959E+08, 1.146562814590691E+08, -1.887537083805633E+07,
2460679.500000000, A.D. 2025-Jan-04 00:00:00.0000, 7.604335026926454E+08, 1.225448871053113E+08, -1.977594206083695E+07,
2460686.500000000, A.D. 2025-Jan-11 00:00:00.0000, 7.593300562509040E+08, 1.304204283116205E+08, -2.067441357465139E+07,
2460693.500000000, A.D. 2025-Jan-18 00:00:00.0000, 7.581460520678314E+08, 1.382820806716892E+08, -2.157069191624059E+07,
2460700.500000000, A.D. 2025-Jan-25 00:00:00.0000, 7.568816898565651E+08, 1.461290230811260E+08, -2.246468405582543E+07,
2460707.500000000, A.D. 2025-Feb-01 00:00:00.0000, 7.555371779375793E+08, 1.539604379222721E+08, -2.335629739256307E+07,
2460714.500000000, A.D. 2025-Feb-08 00:00:00.0000, 7.541127330239724E+08, 1.617755111515573E+08, -2.424543975408595E+07,
2460721.500000000, A.D. 2025-Feb-15 00:00:00.0000, 7.526085800074061E+08, 1.695734322693296E+08, -2.513201940419775E+07,
$$EOE